[{"OBJECT_NAME":"TIANMU-1 21","OBJECT_ID":"2023-208C","EPOCH":"2026-03-09T21:48:13.065120","MEAN_MOTION":15.33041299,"ECCENTRICITY":0.00059807,"INCLINATION":97.4378,"RA_OF_ASC_NODE":187.7048,"ARG_OF_PERICENTER":317.2488,"MEAN_ANOMALY":42.8288,"EPHEMERIS_TYPE":0,"CLASSIFICATION_TYPE":"U","NORAD_CAT_ID":58662,"ELEMENT_SET_NO":999,"REV_AT_EPOCH":12234,"BSTAR":0.00040063782,"MEAN_MOTION_DOT":0.00012722,"MEAN_MOTION_DDOT":0},{"OBJECT_NAME":"STARLINK-34551","OBJECT_ID":"2025-139U","EPOCH":"2026-03-09T12:12:25.064352","MEAN_MOTION":15.30194616,"ECCENTRICITY":0.00013715,"INCLINATION":53.1592,"RA_OF_ASC_NODE":117.4255,"ARG_OF_PERICENTER":82.1664,"MEAN_ANOMALY":277.9492,"EPHEMERIS_TYPE":0,"CLASSIFICATION_TYPE":"U","NORAD_CAT_ID":64682,"ELEMENT_SET_NO":999,"REV_AT_EPOCH":4040,"BSTAR":0.00090664113,"MEAN_MOTION_DOT":0.00026585,"MEAN_MOTION_DDOT":0}]
